[{"OBJECT_NAME":"GEOSCAN 5 (RS92S5)","OBJECT_ID":"2025-155R","EPOCH":"2026-03-09T22:01:07.273920","MEAN_MOTION":15.30265233,"ECCENTRICITY":0.00070849,"INCLINATION":97.4462,"RA_OF_ASC_NODE":37.7456,"ARG_OF_PERICENTER":154.5846,"MEAN_ANOMALY":205.5745,"EPHEMERIS_TYPE":0,"CLASSIFICATION_TYPE":"U","NORAD_CAT_ID":64891,"ELEMENT_SET_NO":999,"REV_AT_EPOCH":6562,"BSTAR":0.00068639307,"MEAN_MOTION_DOT":0.00020065,"MEAN_MOTION_DDOT":0},{"OBJECT_NAME":"STARLINK-35610","OBJECT_ID":"2025-259G","EPOCH":"2026-03-09T23:02:24.642816","MEAN_MOTION":15.27587366,"ECCENTRICITY":0.00023956,"INCLINATION":43.0029,"RA_OF_ASC_NODE":272.7341,"ARG_OF_PERICENTER":274.9006,"MEAN_ANOMALY":85.1572,"EPHEMERIS_TYPE":0,"CLASSIFICATION_TYPE":"U","NORAD_CAT_ID":66428,"ELEMENT_SET_NO":999,"REV_AT_EPOCH":1953,"BSTAR":0.0010125274,"MEAN_MOTION_DOT":0.00027712,"MEAN_MOTION_DDOT":0}]
